start=new Date('2023-03-09T00:00:00.000Z').valueOf();
sats=[{"MEAN_ANOMALY":"254.0329","OBJECT_NAME":"STARLINK-4140","MEAN_MOTION_DOT":"0.00003334","RCS_SIZE":"LARGE","TIME_SYSTEM":"UTC","ELEMENT_SET_NO":"999","OBJECT_ID":"2022-086T","COUNTRY_CODE":"US","REF_FRAME":"TEME","EPHEMERIS_TYPE":"0","MEAN_MOTION":"15.08839053","EPOCH":"2023-03-08T17:48:18.489888","MEAN_ELEMENT_THEORY":"SGP4","NORAD_CAT_ID":"53259","OBJECT_TYPE":"PAYLOAD","ECCENTRICITY":"0.00011440","ARG_OF_PERICENTER":"106.0789","REV_AT_EPOCH":"3546","CLASSIFICATION_TYPE":"U","TLE_LINE1":"1 53259U 22086T   23067.74188067  .00003334  00000-0  22748-3 0  9990","INCLINATION":"53.2175","PERIOD":"95.438","MEAN_MOTION_DDOT":"0.0000000000000","FILE":"3855077","LAUNCH_DATE":"2022-07-24","DECAY_DATE":null,"SITE":"AFETR","TLE_LINE2":"2 53259  53.2175  78.5065 0001144 106.0789 254.0329 15.08839053 35466","CENTER_NAME":"EARTH","PERIAPSIS":"538.957","BSTAR":"0.00022748000000","SEMIMAJOR_AXIS":"6917.883","APOAPSIS":"540.540","RA_OF_ASC_NODE":"78.5065","GP_ID":"227722093"},{"MEAN_ANOMALY":"274.5744","MEAN_MOTION_DOT":"0.00022488","OBJECT_NAME":"STARLINK-4136","TIME_SYSTEM":"UTC","RCS_SIZE":"LARGE","ELEMENT_SET_NO":"999","OBJECT_ID":"2022-086U","COUNTRY_CODE":"US","EPHEMERIS_TYPE":"0","REF_FRAME":"TEME","MEAN_MOTION":"15.08853531","EPOCH":"2023-03-08T17:57:31.816224","NORAD_CAT_ID":"53260","MEAN_ELEMENT_THEORY":"SGP4","OBJECT_TYPE":"PAYLOAD","ECCENTRICITY":"0.00017920","ARG_OF_PERICENTER":"85.5453","CLASSIFICATION_TYPE":"U","REV_AT_EPOCH":"3546","INCLINATION":"53.2186","TLE_LINE1":"1 53260U 22086U   23067.74828491  .00022488  00000-0  14260-2 0  9994","PERIOD":"95.437","MEAN_MOTION_DDOT":"0.0000000000000","LAUNCH_DATE":"2022-07-24","FILE":"3855077","DECAY_DATE":null,"SITE":"AFETR","TLE_LINE2":"2 53260  53.2186  78.4789 0001792  85.5453 274.5744 15.08853531 35465","CENTER_NAME":"EARTH","SEMIMAJOR_AXIS":"6917.839","BSTAR":"0.00142600000000","PERIAPSIS":"538.464","RA_OF_ASC_NODE":"78.4789","GP_ID":"227722843","APOAPSIS":"540.944"},{"TLE_LINE2":"2 53261  53.2165  78.5502 0000932 114.0497 246.0593 15.08853406 35465","CENTER_NAME":"EARTH","APOAPSIS":"540.349","GP_ID":"227723593","RA_OF_ASC_NODE":"78.5502","BSTAR":"0.00130670000000","PERIAPSIS":"539.060","SEMIMAJOR_AXIS":"6917.839","MEAN_MOTION_DDOT":"0.0000000000000","PERIOD":"95.437","DECAY_DATE":null,"FILE":"3855077","LAUNCH_DATE":"2022-07-24","SITE":"AFETR","EPOCH":"2023-03-08T17:36:19.804320","OBJECT_TYPE":"PAYLOAD","MEAN_ELEMENT_THEORY":"SGP4","NORAD_CAT_ID":"53261","ECCENTRICITY":"0.00009320","ARG_OF_PERICENTER":"114.0497","TLE_LINE1":"1 53261U 22086V   23067.73356255  .00020577  00000-0  13067-2 0  9999","INCLINATION":"53.2165","REV_AT_EPOCH":"3546","CLASSIFICATION_TYPE":"U","OBJECT_NAME":"STARLINK-4062","MEAN_MOTION_DOT":"0.00020577","MEAN_ANOMALY":"246.0593","ELEMENT_SET_NO":"999","RCS_SIZE":"LARGE","TIME_SYSTEM":"UTC","COUNTRY_CODE":"US","OBJECT_ID":"2022-086V","MEAN_MOTION":"15.08853406","REF_FRAME":"TEME","EPHEMERIS_TYPE":"0"},{"SITE":"AFETR","LAUNCH_DATE":"2022-07-24","FILE":"3855077","DECAY_DATE":null,"PERIOD":"95.436","MEAN_MOTION_DDOT":"0.0000000000000","SEMIMAJOR_AXIS":"6917.820","PERIAPSIS":"538.973","BSTAR":"0.00112320000000","GP_ID":"227723840","RA_OF_ASC_NODE":"78.5163","APOAPSIS":"540.396","CENTER_NAME":"EARTH","TLE_LINE2":"2 53262  53.2164  78.5163 0001028 106.7079 253.4026 15.08859882 35466","EPHEMERIS_TYPE":"0","REF_FRAME":"TEME","MEAN_MOTION":"15.08859882","OBJECT_ID":"2022-086W","COUNTRY_CODE":"US","TIME_SYSTEM":"UTC","RCS_SIZE":"LARGE","ELEMENT_SET_NO":"999","MEAN_ANOMALY":"253.4026","MEAN_MOTION_DOT":"0.00017643","OBJECT_NAME":"STARLINK-4085","CLASSIFICATION_TYPE":"U","REV_AT_EPOCH":"3546","INCLINATION":"53.2164","TLE_LINE1":"1 53262U 22086W   23067.74091792  .00017643  00000-0  11232-2 0  9995","ECCENTRICITY":"0.00010280","ARG_OF_PERICENTER":"106.7079","NORAD_CAT_ID":"53262","MEAN_ELEMENT_THEORY":"SGP4","OBJECT_TYPE":"PAYLOAD","EPOCH":"2023-03-08T17:46:55.308288"},{"SITE":"AFETR","MEAN_MOTION_DDOT":"0.0000000000000","PERIOD":"95.436","DECAY_DATE":null,"FILE":"3855077","LAUNCH_DATE":"2022-07-24","APOAPSIS":"540.739","RA_OF_ASC_NODE":"78.5653","GP_ID":"227722593","BSTAR":"0.00153030000000","PERIAPSIS":"538.622","SEMIMAJOR_AXIS":"6917.815","TLE_LINE2":"2 53263  53.2170  78.5653 0001530  92.0228 268.0940 15.08861297 35469","CENTER_NAME":"EARTH","COUNTRY_CODE":"US","OBJECT_ID":"2022-086X","MEAN_MOTION":"15.08861297","REF_FRAME":"TEME","EPHEMERIS_TYPE":"0","MEAN_MOTION_DOT":"0.00024165","OBJECT_NAME":"STARLINK-4130","MEAN_ANOMALY":"268.0940","ELEMENT_SET_NO":"999","RCS_SIZE":"LARGE","TIME_SYSTEM":"UTC","ARG_OF_PERICENTER":"92.0228","ECCENTRICITY":"0.00015300","TLE_LINE1":"1 53263U 22086X   23067.72988148  .00024165  00000-0  15303-2 0  9994","INCLINATION":"53.2170","REV_AT_EPOCH":"3546","CLASSIFICATION_TYPE":"U","EPOCH":"2023-03-08T17:31:01.759872","OBJECT_TYPE":"PAYLOAD","MEAN_ELEMENT_THEORY":"SGP4","NORAD_CAT_ID":"53263"},{"SITE":"AFETR","DECAY_DATE":null,"LAUNCH_DATE":"2022-07-24","FILE":"3855077","PERIOD":"95.437","MEAN_MOTION_DDOT":"0.0000000000000","GP_ID":"227722343","RA_OF_ASC_NODE":"78.5337","APOAPSIS":"540.547","SEMIMAJOR_AXIS":"6917.843","PERIAPSIS":"538.870","BSTAR":"0.00070990000000","CENTER_NAME":"EARTH","TLE_LINE2":"2 53264  53.2173  78.5337 0001212 102.1639 257.9489 15.08852153 35464","MEAN_MOTION":"15.08852153","EPHEMERIS_TYPE":"0","REF_FRAME":"TEME","COUNTRY_CODE":"US","OBJECT_ID":"2022-086Y","ELEMENT_SET_NO":"999","TIME_SYSTEM":"UTC","RCS_SIZE":"LARGE","OBJECT_NAME":"STARLINK-3950","MEAN_MOTION_DOT":"0.00011032","MEAN_ANOMALY":"257.9489","INCLINATION":"53.2173","TLE_LINE1":"1 53264U 22086Y   23067.73724347  .00011032  00000-0  70990-3 0  9998","REV_AT_EPOCH":"3546","CLASSIFICATION_TYPE":"U","ARG_OF_PERICENTER":"102.1639","ECCENTRICITY":"0.00012120","OBJECT_TYPE":"PAYLOAD","NORAD_CAT_ID":"53264","MEAN_ELEMENT_THEORY":"SGP4","EPOCH":"2023-03-08T17:41:37.835808"},{"RCS_SIZE":"LARGE","TIME_SYSTEM":"UTC","ELEMENT_SET_NO":"999","MEAN_ANOMALY":"266.7655","MEAN_MOTION_DOT":"0.00020247","OBJECT_NAME":"STARLINK-4097","REF_FRAME":"TEME","EPHEMERIS_TYPE":"0","MEAN_MOTION":"15.08850534","OBJECT_ID":"2022-086Z","COUNTRY_CODE":"US","MEAN_ELEMENT_THEORY":"SGP4","NORAD_CAT_ID":"53265","OBJECT_TYPE":"PAYLOAD","EPOCH":"2023-03-08T17:20:26.229984","CLASSIFICATION_TYPE":"U","REV_AT_EPOCH":"3546","TLE_LINE1":"1 53265U 22086Z   23067.72252581  .00020247  00000-0  12862-2 0  9995","INCLINATION":"53.2180","ARG_OF_PERICENTER":"93.3471","ECCENTRICITY":"0.00011670","FILE":"3855077","LAUNCH_DATE":"2022-07-24","DECAY_DATE":null,"PERIOD":"95.437","MEAN_MOTION_DDOT":"0.0000000000000","SITE":"AFETR","CENTER_NAME":"EARTH","TLE_LINE2":"2 53265  53.2180  78.5947 0001167  93.3471 266.7655 15.08850534 35468","BSTAR":"0.00128620000000","PERIAPSIS":"538.906","SEMIMAJOR_AXIS":"6917.848","APOAPSIS":"540.521","RA_OF_ASC_NODE":"78.5947","GP_ID":"227723093"},{"ARG_OF_PERICENTER":"94.6451","ECCENTRICITY":"0.00013290","REV_AT_EPOCH":"3546","CLASSIFICATION_TYPE":"U","INCLINATION":"53.2164","TLE_LINE1":"1 53266U 22086AA  23067.72620470  .00013996  00000-0  89566-3 0  9991","EPOCH":"2023-03-08T17:25:44.086080","NORAD_CAT_ID":"53266","MEAN_ELEMENT_THEORY":"SGP4","OBJECT_TYPE":"PAYLOAD","OBJECT_ID":"2022-086AA","COUNTRY_CODE":"US","EPHEMERIS_TYPE":"0","REF_FRAME":"TEME","MEAN_MOTION":"15.08842882","MEAN_ANOMALY":"265.4693","MEAN_MOTION_DOT":"0.00013996","OBJECT_NAME":"STARLINK-4058","TIME_SYSTEM":"UTC","RCS_SIZE":"LARGE","ELEMENT_SET_NO":"999","SEMIMAJOR_AXIS":"6917.872","PERIAPSIS":"538.817","BSTAR":"0.00089566000000","GP_ID":"227723340","RA_OF_ASC_NODE":"78.5816","APOAPSIS":"540.656","TLE_LINE2":"2 53266  53.2164  78.5816 0001329  94.6451 265.4693 15.08842882 35463","CENTER_NAME":"EARTH","SITE":"AFETR","PERIOD":"95.437","MEAN_MOTION_DDOT":"0.0000000000000","LAUNCH_DATE":"2022-07-24","FILE":"3855077","DECAY_DATE":null},{"MEAN_MOTION_DOT":"0.00048446","OBJECT_NAME":"STARLINK-4060","MEAN_ANOMALY":"236.4457","ELEMENT_SET_NO":"999","RCS_SIZE":"LARGE","TIME_SYSTEM":"UTC","COUNTRY_CODE":"US","OBJECT_ID":"2022-086AB","MEAN_MOTION":"15.08846672","REF_FRAME":"TEME","EPHEMERIS_TYPE":"0","EPOCH":"2023-03-08T23:31:22.944288","OBJECT_TYPE":"PAYLOAD","MEAN_ELEMENT_THEORY":"SGP4","NORAD_CAT_ID":"53267","ARG_OF_PERICENTER":"123.6662","ECCENTRICITY":"0.00013290","TLE_LINE1":"1 53267U 22086AB  23067.98012667  .00048446  00000-0  30407-2 0  9990","INCLINATION":"53.2159","CLASSIFICATION_TYPE":"U","REV_AT_EPOCH":"3532","MEAN_MOTION_DDOT":"0.0000000000000","PERIOD":"95.437","DECAY_DATE":null,"FILE":"3854997","LAUNCH_DATE":"2022-07-24","SITE":"AFETR","TLE_LINE2":"2 53267  53.2159  77.4385 0001329 123.6662 236.4457 15.08846672 35326","CENTER_NAME":"EARTH","APOAPSIS":"540.644","GP_ID":"227697490","RA_OF_ASC_NODE":"77.4385","PERIAPSIS":"538.806","BSTAR":"0.00304070000000","SEMIMAJOR_AXIS":"6917.860"},{"SITE":"AFETR","FILE":"3854993","LAUNCH_DATE":"2022-07-24","DECAY_DATE":null,"PERIOD":"95.436","MEAN_MOTION_DDOT":"0.0000000000000","PERIAPSIS":"538.627","BSTAR":"0.00104000000000","SEMIMAJOR_AXIS":"6917.829","APOAPSIS":"540.760","GP_ID":"227697432","RA_OF_ASC_NODE":"77.4253","CENTER_NAME":"EARTH","TLE_LINE2":"2 53268  53.2173  77.4253 0001542  93.9027 266.2142 15.08856919 35325","REF_FRAME":"TEME","EPHEMERIS_TYPE":"0","MEAN_MOTION":"15.08856919","OBJECT_ID":"2022-086AC","COUNTRY_CODE":"US","RCS_SIZE":"LARGE","TIME_SYSTEM":"UTC","ELEMENT_SET_NO":"999","MEAN_ANOMALY":"266.2142","OBJECT_NAME":"STARLINK-4109","MEAN_MOTION_DOT":"0.00016310","CLASSIFICATION_TYPE":"U","REV_AT_EPOCH":"3532","TLE_LINE1":"1 53268U 22086AC  23067.98380451  .00016310  00000-0  10400-2 0  9996","INCLINATION":"53.2173","ECCENTRICITY":"0.00015420","ARG_OF_PERICENTER":"93.9027","MEAN_ELEMENT_THEORY":"SGP4","NORAD_CAT_ID":"53268","OBJECT_TYPE":"PAYLOAD","EPOCH":"2023-03-08T23:36:40.709664"}];
